NORAD_CAT_ID,OBJECT_NAME,OBJECT_TYPE,EPOCH,MEAN_MOTION,ECCENTRICITY,INCLINATION,RA_OF_ASC_NODE,ARG_OF_PERICENTER,MEAN_ANOMALY,BSTAR,MEAN_MOTION_DOT,MEAN_MOTION_DDOT,TLE_LINE0,TLE_LINE1,TLE_LINE2,SEMIMAJOR_AXIS,PERIOD,APOGEE,PERIGEE,DECAYED
52460.0,STARLINK-3865,PAYLOAD,2023-08-31 06:27:45,15.08843092,0.0001456,53.2174,235.4894,88.5515,271.5644,9.3946e-05,1.208e-05,0.0,0 STARLINK-3865,1 52460U 22049K   23243.26927829  .00001208  00000-0  93946-4 0  9999,2 52460  53.2174 235.4894 0001456  88.5515 271.5644 15.08843092 73306,6917.871,95.437,540.743,538.729,0.0
52460.0,STARLINK-3865,PAYLOAD,2023-08-31 23:57:00,15.08835597,0.0001156,53.2166,232.2181,83.349,276.7634,7.1148e-05,8.45e-06,0.0,0 STARLINK-3865,1 52460U 22049K   23243.99792557  .00000845  00000-0  71148-4 0  9993,2 52460  53.2166 232.2181 0001156  83.3490 276.7634 15.08835597 73412,6917.894,95.438,540.559,538.959,0.0
52460.0,STARLINK-3865,PAYLOAD,2023-09-01 06:18:33,15.08835198,0.0001079,53.2171,231.0289,81.8588,278.2527,6.5291e-05,7.51e-06,0.0,0 STARLINK-3865,1 52460U 22049K   23244.26288656  .00000751  00000-0  65291-4 0  9992,2 52460  53.2171 231.0289 0001079  81.8588 278.2527 15.08835198 73290,6917.895,95.438,540.507,539.014,0.0
52460.0,STARLINK-3865,PAYLOAD,2023-09-01 15:50:52,15.08840435,0.0001425,53.2174,229.2452,91.0565,269.0591,2.8302e-05,1.63e-06,0.0,0 STARLINK-3865,1 52460U 22049K   23244.66032457  .00000163  00000-0  28302-4 0  9991,2 52460  53.2174 229.2452 0001425  91.0565 269.0591 15.08840435 73353,6917.879,95.438,540.73,538.758,0.0
52460.0,STARLINK-3865,PAYLOAD,2023-09-02 07:44:43,15.0883985,0.0001532,53.214,226.2698,89.374,270.7428,1.8306e-05,3e-08,0.0,0 STARLINK-3865,1 52460U 22049K   23245.32272581  .00000003  00000-0  18306-4 0  9995,2 52460  53.2140 226.2698 0001532  89.3740 270.7428 15.08839850 73615,6917.881,95.438,540.806,538.686,0.0
52460.0,STARLINK-3865,PAYLOAD,2023-09-02 15:41:39,15.08835257,0.0001488,53.2146,224.7826,86.5977,273.5185,4.215e-05,3.83e-06,0.0,0 STARLINK-3865,1 52460U 22049K   23245.65392865  .00000383  00000-0  42150-4 0  9994,2 52460  53.2146 224.7826 0001488  86.5977 273.5185 15.08835257 73504,6917.895,95.438,540.789,538.731,0.0
52460.0,STARLINK-3865,PAYLOAD,2023-09-03 07:35:30,15.0883852,0.0001488,53.2156,221.809,89.0116,271.1047,5.7072e-05,6.2e-06,0.0,0 STARLINK-3865,1 52460U 22049K   23246.31632842  .00000620  00000-0  57072-4 0  9993,2 52460  53.2156 221.8090 0001488  89.0116 271.1047 15.08838520 73607,6917.885,95.438,540.779,538.721,0.0
52460.0,STARLINK-3865,PAYLOAD,2023-09-03 15:32:26,15.08838074,0.0001495,53.2161,220.3214,82.7432,277.373,5.2806e-05,5.52e-06,0.0,0 STARLINK-3865,1 52460U 22049K   23246.64752932  .00000552  00000-0  52806-4 0  9996,2 52460  53.2161 220.3214 0001495  82.7432 277.3730 15.08838074 73818,6917.886,95.438,540.785,538.717,0.0
52460.0,STARLINK-3865,PAYLOAD,2023-09-04 07:26:18,15.08838677,0.0001399,53.2141,217.3493,84.0025,276.1127,-3.3271e-05,-8.17e-06,0.0,0 STARLINK-3865,1 52460U 22049K   23247.30993427 -.00000817  00000-0 -33271-4 0  9997,2 52460  53.2141 217.3493 0001399  84.0025 276.1127 15.08838677 73756,6917.884,95.438,540.717,538.782,0.0
52460.0,STARLINK-3865,PAYLOAD,2023-09-05 04:06:18,15.08840452,0.000135,53.2156,213.4837,83.5032,276.6114,0.00011222,1.499e-05,0.0,0 STARLINK-3865,1 52460U 22049K   23248.17105044  .00001499  00000-0  11222-3 0  9999,2 52460  53.2156 213.4837 0001350  83.5032 276.6114 15.08840452 74048,6917.879,95.438,540.678,538.81,0.0
52460.0,STARLINK-3865,PAYLOAD,2023-09-06 03:57:05,15.08842823,0.0001314,53.2162,209.0216,90.6542,269.4601,0.00017625,2.518e-05,0.0,0 STARLINK-3865,1 52460U 22049K   23249.16464704  .00002518  00000-0  17625-3 0  9996,2 52460  53.2162 209.0216 0001314  90.6542 269.4601 15.08842823 74036,6917.872,95.437,540.646,538.828,0.0
52460.0,STARLINK-3865,PAYLOAD,2023-09-06 21:26:20,15.08841048,0.0001008,53.2179,205.7513,89.1201,270.9906,5.6705e-05,6.15e-06,0.0,0 STARLINK-3865,1 52460U 22049K   23249.89329087  .00000615  00000-0  56705-4 0  9999,2 52460  53.2179 205.7513 0001008  89.1201 270.9906 15.08841048 74147,6917.877,95.437,540.44,539.045,0.0
52460.0,STARLINK-3865,PAYLOAD,2023-09-07 06:58:38,15.08846007,0.0001318,53.2166,203.9664,94.6397,265.4746,4.4078e-05,4.14e-06,0.0,0 STARLINK-3865,1 52460U 22049K   23250.29072754  .00000414  00000-0  44078-4 0  9998,2 52460  53.2166 203.9664 0001318  94.6397 265.4746 15.08846007 74209,6917.862,95.437,540.639,538.815,0.0
52460.0,STARLINK-3865,PAYLOAD,2023-09-08 03:38:39,15.08840671,0.0001232,53.2176,200.1006,91.7236,268.3897,3.8571e-05,3.26e-06,0.0,0 STARLINK-3865,1 52460U 22049K   23251.15185180  .00000326  00000-0  38571-4 0  9995,2 52460  53.2176 200.1006 0001232  91.7236 268.3897 15.08840671 74495,6917.878,95.438,540.596,538.891,0.0
52460.0,STARLINK-3865,PAYLOAD,2023-09-08 05:14:03,15.0884005,0.0001229,53.2176,199.8035,91.8745,268.2388,4.2489e-05,3.88e-06,0.0,0 STARLINK-3865,1 52460U 22049K   23251.21809226  .00000388  00000-0  42489-4 0  9997,2 52460  53.2176 199.8035 0001229  91.8745 268.2388 15.08840050 74342,6917.88,95.438,540.595,538.895,0.0
52460.0,STARLINK-3865,PAYLOAD,2023-09-09 05:04:50,15.08841823,0.0001436,53.2179,195.3457,96.924,263.1916,6.7033e-05,7.79e-06,0.0,0 STARLINK-3865,1 52460U 22049K   23252.21169213  .00000779  00000-0  67033-4 0  9999,2 52460  53.2179 195.3457 0001436  96.9240 263.1916 15.08841823 74654,6917.875,95.437,540.733,538.746,0.0
52460.0,STARLINK-3865,PAYLOAD,2023-09-09 13:01:45,15.0884887,0.0001268,53.218,193.8588,96.1782,263.9354,-4.0584e-05,-9.34e-06,0.0,0 STARLINK-3865,1 52460U 22049K   23252.54289015 -.00000934  00000-0 -40584-4 0  9995,2 52460  53.2180 193.8588 0001268  96.1782 263.9354 15.08848870 74541,6917.853,95.437,540.595,538.841,0.0
52460.0,STARLINK-3865,PAYLOAD,2023-09-10 06:31:00,15.08845293,0.0001468,53.2176,190.5876,89.9659,270.1501,0.00010387,1.366e-05,0.0,0 STARLINK-3865,1 52460U 22049K   23253.27153144  .00001366  00000-0  10387-3 0  9994,2 52460  53.2176 190.5876 0001468  89.9659 270.1501 15.08845293 74815,6917.864,95.437,540.745,538.714,0.0
52460.0,STARLINK-3865,PAYLOAD,2023-09-11 01:35:38,15.08839651,0.0001673,53.2167,187.0168,81.6242,278.494,8.6212e-06,-1.51e-06,0.0,0 STARLINK-3865,1 52460U 22049K   23254.06642057 -.00000151  00000-0  86212-5 0  9992,2 52460  53.2167 187.0168 0001673  81.6242 278.4940 15.08839651 74937,6917.881,95.438,540.904,538.589,0.0
52460.0,STARLINK-3865,PAYLOAD,2023-09-11 12:43:20,15.08840925,0.0001428,53.2169,184.9354,86.8783,273.2372,2.4762e-05,1.06e-06,0.0,0 STARLINK-3865,1 52460U 22049K   23254.53009869  .00000106  00000-0  24762-4 0  9992,2 52460  53.2169 184.9354 0001428  86.8783 273.2372 15.08840925 74845,6917.878,95.437,540.73,538.755,0.0
52460.0,STARLINK-3865,PAYLOAD,2023-09-12 04:37:11,15.08850139,0.000141,53.2169,181.9631,89.8383,270.277,7.419e-05,8.93e-06,0.0,0 STARLINK-3865,1 52460U 22049K   23255.19249208  .00000893  00000-0  74190-4 0  9991,2 52460  53.2169 181.9631 0001410  89.8383 270.2770 15.08850139 75107,6917.849,95.437,540.69,538.739,0.0
52460.0,STARLINK-3865,PAYLOAD,2023-09-13 01:17:12,15.0884529,0.0001329,53.2173,178.0946,109.4695,250.6441,3.1925e-05,2.2e-06,0.0,0 STARLINK-3865,1 52460U 22049K   23256.05361556  .00000220  00000-0  31925-4 0  9991,2 52460  53.2173 178.0946 0001329 109.4695 250.6441 15.08845290 75235,6917.864,95.437,540.649,538.81,0.0
52460.0,STARLINK-3865,PAYLOAD,2023-09-13 04:27:57,15.08862867,0.0001344,53.2173,177.5025,87.7355,272.3791,0.00022926,3.365e-05,0.0,0 STARLINK-3865,1 52460U 22049K   23256.18608104  .00003365  00000-0  22926-3 0  9991,2 52460  53.2173 177.5025 0001344  87.7355 272.3791 15.08862867 75255,6917.81,95.436,540.605,538.746,0.0
52460.0,STARLINK-3865,PAYLOAD,2023-09-14 01:07:59,15.08842547,0.0001405,53.217,173.6357,105.5943,254.5204,2.98e-05,1.86e-06,0.0,0 STARLINK-3865,1 52460U 22049K   23257.04721513  .00000186  00000-0  29800-4 0  9994,2 52460  53.2170 173.6357 0001405 105.5943 254.5204 15.08842547 75385,6917.873,95.437,540.71,538.766,0.0
52460.0,STARLINK-3865,PAYLOAD,2023-09-14 04:18:45,15.08850067,0.0001444,53.2171,173.0401,110.5779,249.5368,-2.4149e-05,-6.72e-06,0.0,0 STARLINK-3865,1 52460U 22049K   23257.17969098 -.00000672  00000-0 -24149-4 0  9993,2 52460  53.2171 173.0401 0001444 110.5779 249.5368 15.08850067 75242,6917.85,95.437,540.714,538.716,0.0
52460.0,STARLINK-3865,PAYLOAD,2023-09-14 21:48:00,15.08841603,0.0001359,53.2168,169.7703,105.8682,254.246,-0.00010178,-1.907e-05,0.0,0 STARLINK-3865,1 52460U 22049K   23257.90834300 -.00001907  00000-0 -10178-3 0  9999,2 52460  53.2168 169.7703 0001359 105.8682 254.2460 15.08841603 75354,6917.875,95.437,540.681,538.8,0.0
52460.0,STARLINK-3865,PAYLOAD,2023-09-15 02:34:09,15.08847111,0.0001364,53.2183,168.879,95.7229,264.3918,-8.8058e-05,-1.689e-05,0.0,0 STARLINK-3865,1 52460U 22049K   23258.10705814 -.00001689  00000-0 -88058-4 0  9999,2 52460  53.2183 168.8790 0001364  95.7229 264.3918 15.08847111 75548,6917.859,95.437,540.667,538.78,0.0
52460.0,STARLINK-3865,PAYLOAD,2023-09-16 00:49:32,15.0885355,0.0001266,53.2166,164.7156,112.0376,248.0751,0.00014925,2.089e-05,0.0,0 STARLINK-3865,1 52460U 22049K   23259.03440914  .00002089  00000-0  14925-3 0  9993,2 52460  53.2166 164.7156 0001266 112.0376 248.0751 15.08853550 75680,6917.839,95.437,540.58,538.828,0.0
52460.0,STARLINK-3865,PAYLOAD,2023-09-16 04:00:19,15.08856015,0.0001274,53.2167,164.1206,111.9799,248.1329,0.00016513,2.342e-05,0.0,0 STARLINK-3865,1 52460U 22049K   23259.16688669  .00002342  00000-0  16513-3 0  9995,2 52460  53.2167 164.1206 0001274 111.9799 248.1329 15.08856015 75543,6917.831,95.437,540.578,538.815,0.0
52460.0,STARLINK-3865,PAYLOAD,2023-09-16 16:43:25,15.08831143,0.0001681,53.217,161.7415,104.2619,255.856,0.00011373,1.522e-05,0.0,0 STARLINK-3865,1 52460U 22049K   23259.69682621  .00001522  00000-0  11373-3 0  9993,2 52460  53.2170 161.7415 0001681 104.2619 255.8560 15.08831143 75783,6917.907,95.438,540.935,538.61,0.0
